OSCAR 7 (AO-7)          
1 07530U 74089B   22105.20670185 -.00000037  00000+0  56274-4 0  9990
2 07530 101.9004  84.8885 0012292 161.4888 211.2729 12.53654187169782
PHASE 3B (AO-10)        
1 14129U 83058B   22104.16157030  .00000183  00000+0  00000+0 0  9993
2 14129  26.4111 106.7210 5988349  64.8926 344.7019  2.05867338264082
UOSAT 2 (UO-11)         
1 14781U 84021B   22105.18862551  .00000840  00000+0  10811-3 0  9997
2 14781  97.6152  95.5224 0008838 159.5244 200.6326 14.83549160 51665
LUSAT (LO-19)           
1 20442U 90005G   22105.12263377  .00000114  00000+0  58439-4 0  9995
2 20442  98.7877  69.0392 0011754   0.5624 359.5570 14.33041276684096
EYESAT A (AO-27)        
1 22825U 93061C   22104.77960268  .00000079  00000+0  48344-4 0  9994
2 22825  98.8941 134.4497 0007583 232.6719 127.3772 14.30157773489058
ITAMSAT (IO-26)         
1 22826U 93061D   22104.81814445  .00000089  00000+0  51987-4 0  9993
2 22826  98.8885 134.3726 0008294 218.3223 141.7370 14.30501312489316
RADIO ROSTO (RS-15)     
1 23439U 94085A   22104.89478740 -.00000037  00000+0  15882-3 0  9990
2 23439  64.8115 248.4125 0167174 283.4415  74.7926 11.27571307124328
JAS-2 (FO-29)           
1 24278U 96046B   22104.84312216 -.00000009  00000+0  24082-4 0  9993
2 24278  98.5236 137.2604 0351358  88.3606 275.7741 13.53113154267002
TECHSAT 1B (GO-32)      
1 25397U 98043D   22104.61756682  .00000045  00000+0  39502-4 0  9991
2 25397  98.8117  54.9386 0000561 351.4588   8.6581 14.23743423234340
ISS (ZARYA)             
1 25544U 98067A   22105.21669113  .00006207  00000+0  11640-3 0  9998
2 25544  51.6446 288.4729 0005027  26.2318 140.9722 15.50061826335419
PCSAT (NO-44)           
1 26931U 01043C   22105.04644647  .00000094  00000+0  67686-4 0  9993
2 26931  67.0513 222.0566 0007847 272.5656  87.4547 14.30683141 72495
SAUDISAT 1C (SO-50)     
1 27607U 02058C   22105.17774152  .00000680  00000+0  11475-3 0  9995
2 27607  64.5533 135.5175 0074583 306.9552  52.4736 14.76005572 39246
CUTE-1 (CO-55)          
1 27844U 03031E   22104.55618611  .00000248  00000+0  13110-3 0  9996
2 27844  98.6812 113.2025 0008701 289.5922  70.4317 14.22413610974824
CUBESAT XI-IV (CO-57)   
1 27848U 03031J   22104.78084387  .00000203  00000+0  11176-3 0  9993
2 27848  98.6859 113.9556 0008705 304.7236  55.3121 14.21975830974637
MOZHAYETS 4 (RS-22)     
1 27939U 03042A   22105.11492085  .00000822  00000+0  15454-3 0  9992
2 27939  98.1801 245.8908 0013740  52.5697 307.6741 14.67243125991758
CUBESAT XI-V            
1 28895U 05043F   22105.10505693  .00000902  00000+0  18003-3 0  9998
2 28895  98.0957 237.5017 0016147 345.0392  15.0331 14.64204550878379
FALCONSAT-3             
1 30776U 07006E   22104.86514466  .00039546  00000+0  71294-3 0  9997
2 30776  35.4324 315.4316 0001143 320.2092  39.8554 15.48746663839707
CUTE-1.7+APD II (CO-65) 
1 32785U 08021C   22104.67653743  .00002114  00000+0  22832-3 0  9993
2 32785  97.6519  77.5805 0014471  85.9152 274.3719 14.89297376756998
DELFI-C3 (DO-64)        
1 32789U 08021G   22104.66027771  .00011231  00000+0  65529-3 0  9992
2 32789  97.3459 133.3225 0011525 174.4013 185.7349 15.12052400762283
SEEDS II (CO-66)        
1 32791U 08021J   22104.48269764  .00003546  00000+0  35238-3 0  9999
2 32791  97.6067  82.9597 0014226  49.3068 310.9385 14.92242121757651
YUBILEINY (RS-30)       
1 32953U 08025A   22105.11939171  .00000021  00000+0  80971-4 0  9990
2 32953  82.5047 223.3020 0019710  42.3114 317.9475 12.43108694630468
KKS-1 (KISEKI)          
1 33499U 09002H   22105.19483147  .00000743  00000+0  11598-3 0  9996
2 33499  98.2272 346.1653 0009582 150.0290 210.1469 14.75901611711343
SWISSCUBE               
1 35932U 09051B   22104.84441845  .00000638  00000+0  15359-3 0  9996
2 35932  98.5771 318.9830 0006448 239.1246 120.9317 14.56764036666870
BEESAT-1                
1 35933U 09051C   22104.86912609  .00000554  00000+0  13470-3 0  9999
2 35933  98.5716 320.6794 0004553 253.3733 106.6965 14.56793251666997
ITUPSAT1                
1 35935U 09051E   22104.84783268  .00000506  00000+0  12643-3 0  9994
2 35935  98.5817 320.7296 0006861 257.2523 102.7907 14.55909859666651
XIWANG-1 (HOPE-1)       
1 36122U 09072B   22105.18840704 -.00000018  00000+0  64932-4 0  9991
2 36122 100.1774  78.8875 0008053 123.8588 236.3293 13.16367619592591
JUGNU                   
1 37839U 11058B   22104.93215583  .00000436  00000+0  90228-4 0  9997
2 37839  19.9599 200.7472 0018792 175.8921 342.8080 14.12766857543257
SRMSAT                  
1 37841U 11058D   22104.81050323  .00000401  00000+0  75143-4 0  9997
2 37841  19.9721 279.6150 0011942   5.0135  24.3631 14.10739816542465
M-CUBED & EXP-1 PRIME   
1 37855U 11061F   22104.68982322  .00008690  00000+0  39676-3 0  9992
2 37855 101.7048 190.1966 0158530 253.0707 105.3077 15.10531499572071
STRAND-1                
1 39090U 13009E   22104.79076536  .00000079  00000+0  42368-4 0  9998
2 39090  98.4096 304.5734 0010331  99.8596 260.3756 14.35268407478265
SOMP                    
1 39134U 13015E   22104.73200824  .00015120  00000+0  57468-3 0  9996
2 39134  64.8613 270.7179 0032725 290.3500  69.4115 15.26490256497120
BEESAT-3                
1 39135U 13015F   22105.16373511  .00010527  00000+0  45465-3 0  9999
2 39135  64.8660 303.9286 0034309 298.3738  61.3932 15.22389217496905
BEESAT-2                
1 39136U 13015G   22104.97613255  .00010791  00000+0  48461-3 0  9992
2 39136  64.8751 312.3223 0011880 289.0357  70.9483 15.21501211496732
ZACUBE-1 (TSHEPISOSAT)  
1 39417U 13066B   22104.70692240  .00001640  00000+0  20730-3 0  9994
2 39417  97.6307  79.1160 0056373 253.1805 106.3221 14.82081797453688
GOMX-1                  
1 39430U 13066Q   22105.13289143  .00001335  00000+0  24779-3 0  9999
2 39430  97.8120  15.9444 0148168 244.4023 114.1805 14.60019561447055
CUBEBUG-2 (LO-74)       
1 39440U 13066AA  22104.70222111  .00002124  00000+0  29528-3 0  9998
2 39440  97.7199  64.9725 0078552 339.5252  20.2815 14.76773866452074
FUNCUBE-1 (AO-73)       
1 39444U 13066AE  22104.70138439  .00001988  00000+0  24400-3 0  9992
2 39444  97.6190  81.5094 0055407 241.4969 118.0659 14.83104495452078
UWE-3                   
1 39446U 13066AG  22105.17196777  .00001943  00000+0  25811-3 0  9993
2 39446  97.6794  72.0042 0067457 296.3651  63.0646 14.79333150451692
SPROUT                  
1 39770U 14029E   22105.14339642  .00007035  00000+0  73344-3 0  9992
2 39770  97.9323 221.7605 0007495 297.7094  62.3328 14.90068291428230
UNISAT-6                
1 40012U 14033C   22104.54043521  .00001186  00000+0  18005-3 0  9993
2 40012  97.6637 295.9204 0057831   7.4579 352.7477 14.74717279420565
DUCHIFAT-1              
1 40021U 14033M   22104.85617610  .00004040  00000+0  40031-3 0  9999
2 40021  98.0068  53.9500 0011005 247.9910 112.0139 14.92362127425219
QB50P1                  
1 40025U 14033R   22105.07822034  .00002393  00000+0  25300-3 0  9997
2 40025  97.9568  42.0171 0010618 265.7207  94.2797 14.90150130424830
NUDT-PHONESAT           
1 40900U 15049B   22105.18496418  .00025075  00000+0  79927-3 0  9998
2 40900  97.4075 122.9703 0011966 143.1128 281.5966 15.32453300364910
ZDPS 2A                 
1 40901U 15049C   22105.18713028  .00011640  00000+0  50430-3 0  9999
2 40901  97.4626 114.3591 0011579 197.9005 231.3163 15.22491112363827
ZDPS 2B                 
1 40902U 15049D   22105.21819825  .00012017  00000+0  51847-3 0  9998
2 40902  97.4694 111.9766 0011522 194.8718 226.7811 15.22624960363800
XW-2A                   
1 40903U 15049E   22104.90961741  .00019823  00000+0  34641-3 0  9994
2 40903  97.1891 163.4509 0010027   2.6877 172.4785 15.50639773369403
KAITUO 1A               
1 40904U 15049F   22104.93626414  .00004305  00000+0  21880-3 0  9993
2 40904  97.4963 108.0855 0012529 225.8911 191.4147 15.17338107363231
2015-049G               
1 40905U 15049G   22105.15411608  .00003663  00000+0  19377-3 0  9990
2 40905  97.5143 105.4563 0013739 228.7860 193.6125 15.16014691363024
XW-2C                   
1 40906U 15049H   22105.20890139  .00005968  00000+0  29368-3 0  9998
2 40906  97.4948 109.1602 0012816 212.9953 211.4114 15.18307796363328
XW-2D                   
1 40907U 15049J   22105.19125266  .00006969  00000+0  33713-3 0  9990
2 40907  97.4939 109.0753 0012456 206.4269 219.5119 15.18844272363366
LILACSAT-2              
1 40908U 15049K   22105.16963396  .00003487  00000+0  18803-3 0  9997
2 40908  97.5170 106.4000 0013985 232.5508 189.8659 15.15355864362903
XW-2E                   
1 40909U 15049L   22105.12490920  .00010249  00000+0  44851-3 0  9998
2 40909  97.4675 113.4123 0012277 187.5488 244.8305 15.22174526363774
XW-2F                   
1 40910U 15049M   22105.09654831  .00010175  00000+0  45194-3 0  9998
2 40910  97.4755 112.5035 0013047 189.7388 241.9486 15.21659079363549
XW-2B                   
1 40911U 15049N   22105.21148211  .00006738  00000+0  32704-3 0  9996
2 40911  97.4924 109.7171 0012258 208.8693 214.7762 15.18741363363259
KAITUO 1B               
1 40912U 15049P   22105.15748796  .00011797  00000+0  48052-3 0  9998
2 40912  97.4404 116.9213 0013938 156.9465 265.9773 15.24545668364108
TIANWANG 1A (TW-1A)     
1 40928U 15051D   22105.18524310  .00033909  00000+0  51315-3 0  9990
2 40928  97.0467 128.6022 0006446 247.4350 178.7495 15.54585134368395
LAPAN-A2                
1 40931U 15052B   22105.17086403  .00000911  00000+0  37539-4 0  9990
2 40931   6.0007 260.5038 0014089 351.0437   8.9171 14.76769999353971
E-ST@R-II               
1 41459U 16025D   22105.05862265  .00018046  00000+0  80047-3 0  9991
2 41459  98.1776 265.6091 0150447 124.5398 237.0013 15.11960244327916
AAUSAT 4                
1 41460U 16025E   22104.94358370  .00025873  00000+0  10432-2 0  9993
2 41460  98.1717 271.1436 0131870 102.8552 258.7406 15.17066787328303
